CCSDS_OMM_VERS = 2.0
CREATION_DATE  = 
ORIGINATOR     = 

OBJECT_NAME    = STARLINK-35805
OBJECT_ID      = 2025-254M
CENTER_NAME    = EARTH
REF_FRAME      = TEME
TIME_SYSTEM    = UTC
MEAN_ELEMENT_THEORY = SGP/SGP4

EPOCH          = 2025-11-26T02:44:39.547968
MEAN_MOTION    = 15.74257510
ECCENTRICITY   = .0001343
INCLINATION    = 53.1584
RA_OF_ASC_NODE = 357.4370
ARG_OF_PERICENTER = 62.9877
MEAN_ANOMALY   = 297.1280

EPHEMERIS_TYPE = 0
CLASSIFICATION_TYPE = U
NORAD_CAT_ID   = 66359
ELEMENT_SET_NO = 999
REV_AT_EPOCH   = 420
BSTAR          = .12366E-2
MEAN_MOTION_DOT = .185046E-2
MEAN_MOTION_DDOT = 0

CCSDS_OMM_VERS = 2.0
CREATION_DATE  = 
ORIGINATOR     = 

OBJECT_NAME    = STARLINK-35823
OBJECT_ID      = 2025-254N
CENTER_NAME    = EARTH
REF_FRAME      = TEME
TIME_SYSTEM    = UTC
MEAN_ELEMENT_THEORY = SGP/SGP4

EPOCH          = 2025-11-26T02:43:41.054304
MEAN_MOTION    = 15.74250423
ECCENTRICITY   = .0001362
INCLINATION    = 53.1583
RA_OF_ASC_NODE = 357.4320
ARG_OF_PERICENTER = 56.3241
MEAN_ANOMALY   = 303.7908

EPHEMERIS_TYPE = 0
CLASSIFICATION_TYPE = U
NORAD_CAT_ID   = 66360
ELEMENT_SET_NO = 999
REV_AT_EPOCH   = 306
BSTAR          = .11145E-2
MEAN_MOTION_DOT = .166299E-2
MEAN_MOTION_DDOT = 0

CCSDS_OMM_VERS = 2.0
CREATION_DATE  = 
ORIGINATOR     = 

OBJECT_NAME    = STARLINK-35813
OBJECT_ID      = 2025-254P
CENTER_NAME    = EARTH
REF_FRAME      = TEME
TIME_SYSTEM    = UTC
MEAN_ELEMENT_THEORY = SGP/SGP4

EPOCH          = 2025-11-26T02:44:10.228128
MEAN_MOTION    = 15.74234515
ECCENTRICITY   = .000126
INCLINATION    = 53.1584
RA_OF_ASC_NODE = 357.4347
ARG_OF_PERICENTER = 121.6655
MEAN_ANOMALY   = 238.4488

EPHEMERIS_TYPE = 0
CLASSIFICATION_TYPE = U
NORAD_CAT_ID   = 66361
ELEMENT_SET_NO = 999
REV_AT_EPOCH   = 306
BSTAR          = .88114E-3
MEAN_MOTION_DOT = .130692E-2
MEAN_MOTION_DDOT = 0

CCSDS_OMM_VERS = 2.0
CREATION_DATE  = 
ORIGINATOR     = 

OBJECT_NAME    = STARLINK-35822
OBJECT_ID      = 2025-254Q
CENTER_NAME    = EARTH
REF_FRAME      = TEME
TIME_SYSTEM    = UTC
MEAN_ELEMENT_THEORY = SGP/SGP4

EPOCH          = 2025-11-26T04:14:07.916064
MEAN_MOTION    = 15.74236398
ECCENTRICITY   = .0001378
INCLINATION    = 53.1583
RA_OF_ASC_NODE = 357.1131
ARG_OF_PERICENTER = 130.8159
MEAN_ANOMALY   = 229.2980

EPHEMERIS_TYPE = 0
CLASSIFICATION_TYPE = U
NORAD_CAT_ID   = 66362
ELEMENT_SET_NO = 999
REV_AT_EPOCH   = 307
BSTAR          = .98454E-3
MEAN_MOTION_DOT = .14639E-2
MEAN_MOTION_DDOT = 0

CCSDS_OMM_VERS = 2.0
CREATION_DATE  = 
ORIGINATOR     = 

OBJECT_NAME    = STARLINK-35806
OBJECT_ID      = 2025-254R
CENTER_NAME    = EARTH
REF_FRAME      = TEME
TIME_SYSTEM    = UTC
MEAN_ELEMENT_THEORY = SGP/SGP4

EPOCH          = 2025-11-26T02:43:11.832096
MEAN_MOTION    = 15.74226435
ECCENTRICITY   = .0000962
INCLINATION    = 53.1584
RA_OF_ASC_NODE = 357.4298
ARG_OF_PERICENTER = 77.6714
MEAN_ANOMALY   = 282.4414

EPHEMERIS_TYPE = 0
CLASSIFICATION_TYPE = U
NORAD_CAT_ID   = 66363
ELEMENT_SET_NO = 999
REV_AT_EPOCH   = 306
BSTAR          = .85546E-3
MEAN_MOTION_DOT = .126761E-2
MEAN_MOTION_DDOT = 0

CCSDS_OMM_VERS = 2.0
CREATION_DATE  = 
ORIGINATOR     = 

OBJECT_NAME    = STARLINK-35797
OBJECT_ID      = 2025-254S
CENTER_NAME    = EARTH
REF_FRAME      = TEME
TIME_SYSTEM    = UTC
MEAN_ELEMENT_THEORY = SGP/SGP4

EPOCH          = 2025-11-26T04:13:38.840736
MEAN_MOTION    = 15.74230299
ECCENTRICITY   = .000122
INCLINATION    = 53.1582
RA_OF_ASC_NODE = 357.1103
ARG_OF_PERICENTER = 121.8014
MEAN_ANOMALY   = 238.3125

EPHEMERIS_TYPE = 0
CLASSIFICATION_TYPE = U
NORAD_CAT_ID   = 66364
ELEMENT_SET_NO = 999
REV_AT_EPOCH   = 307
BSTAR          = .96606E-3
MEAN_MOTION_DOT = .143542E-2
MEAN_MOTION_DDOT = 0

CCSDS_OMM_VERS = 2.0
CREATION_DATE  = 
ORIGINATOR     = 

OBJECT_NAME    = STARLINK-35827
OBJECT_ID      = 2025-254T
CENTER_NAME    = EARTH
REF_FRAME      = TEME
TIME_SYSTEM    = UTC
MEAN_ELEMENT_THEORY = SGP/SGP4

EPOCH          = 2025-11-26T02:41:15.092736
MEAN_MOTION    = 15.74238832
ECCENTRICITY   = .0001356
INCLINATION    = 53.1582
RA_OF_ASC_NODE = 357.4210
ARG_OF_PERICENTER = 93.7797
MEAN_ANOMALY   = 266.3378

EPHEMERIS_TYPE = 0
CLASSIFICATION_TYPE = U
NORAD_CAT_ID   = 66365
ELEMENT_SET_NO = 999
REV_AT_EPOCH   = 306
BSTAR          = .10343E-2
MEAN_MOTION_DOT = .153979E-2
MEAN_MOTION_DDOT = 0

CCSDS_OMM_VERS = 2.0
CREATION_DATE  = 
ORIGINATOR     = 

OBJECT_NAME    = STARLINK-35845
OBJECT_ID      = 2025-254U
CENTER_NAME    = EARTH
REF_FRAME      = TEME
TIME_SYSTEM    = UTC
MEAN_ELEMENT_THEORY = SGP/SGP4

EPOCH          = 2025-11-26T02:41:44.180160
MEAN_MOTION    = 15.74250326
ECCENTRICITY   = .000147
INCLINATION    = 53.1582
RA_OF_ASC_NODE = 357.4226
ARG_OF_PERICENTER = 69.5785
MEAN_ANOMALY   = 290.5393

EPHEMERIS_TYPE = 0
CLASSIFICATION_TYPE = U
NORAD_CAT_ID   = 66366
ELEMENT_SET_NO = 999
REV_AT_EPOCH   = 306
BSTAR          = .10593E-2
MEAN_MOTION_DOT = .157871E-2
MEAN_MOTION_DDOT = 0

CCSDS_OMM_VERS = 2.0
CREATION_DATE  = 
ORIGINATOR     = 

OBJECT_NAME    = STARLINK-35846
OBJECT_ID      = 2025-254V
CENTER_NAME    = EARTH
REF_FRAME      = TEME
TIME_SYSTEM    = UTC
MEAN_ELEMENT_THEORY = SGP/SGP4

EPOCH          = 2025-11-26T02:40:45.910272
MEAN_MOTION    = 15.74235236
ECCENTRICITY   = .0001238
INCLINATION    = 53.1582
RA_OF_ASC_NODE = 357.4180
ARG_OF_PERICENTER = 105.8692
MEAN_ANOMALY   = 254.2464

EPHEMERIS_TYPE = 0
CLASSIFICATION_TYPE = U
NORAD_CAT_ID   = 66367
ELEMENT_SET_NO = 999
REV_AT_EPOCH   = 306
BSTAR          = .10003E-2
MEAN_MOTION_DOT = .148774E-2
MEAN_MOTION_DDOT = 0

CCSDS_OMM_VERS = 2.0
CREATION_DATE  = 
ORIGINATOR     = 

OBJECT_NAME    = STARLINK-34861
OBJECT_ID      = 2025-254W
CENTER_NAME    = EARTH
REF_FRAME      = TEME
TIME_SYSTEM    = UTC
MEAN_ELEMENT_THEORY = SGP/SGP4

EPOCH          = 2025-11-26T04:11:12.639840
MEAN_MOTION    = 15.74267632
ECCENTRICITY   = .0001102
INCLINATION    = 53.1580
RA_OF_ASC_NODE = 357.0976
ARG_OF_PERICENTER = 129.8389
MEAN_ANOMALY   = 230.2728

EPHEMERIS_TYPE = 0
CLASSIFICATION_TYPE = U
NORAD_CAT_ID   = 66368
ELEMENT_SET_NO = 999
REV_AT_EPOCH   = 307
BSTAR          = .15011E-2
MEAN_MOTION_DOT = .225967E-2
MEAN_MOTION_DDOT = 0

CCSDS_OMM_VERS = 2.0
CREATION_DATE  = 
ORIGINATOR     = 

OBJECT_NAME    = STARLINK-35795
OBJECT_ID      = 2025-254X
CENTER_NAME    = EARTH
REF_FRAME      = TEME
TIME_SYSTEM    = UTC
MEAN_ELEMENT_THEORY = SGP/SGP4

EPOCH          = 2025-11-26T02:40:16.632768
MEAN_MOTION    = 15.74251246
ECCENTRICITY   = .0001345
INCLINATION    = 53.1579
RA_OF_ASC_NODE = 357.4147
ARG_OF_PERICENTER = 90.3895
MEAN_ANOMALY   = 269.7279

EPHEMERIS_TYPE = 0
CLASSIFICATION_TYPE = U
NORAD_CAT_ID   = 66369
ELEMENT_SET_NO = 999
REV_AT_EPOCH   = 306
BSTAR          = .11364E-2
MEAN_MOTION_DOT = .169643E-2
MEAN_MOTION_DDOT = 0

CCSDS_OMM_VERS = 2.0
CREATION_DATE  = 
ORIGINATOR     = 

OBJECT_NAME    = STARLINK-35824
OBJECT_ID      = 2025-254Y
CENTER_NAME    = EARTH
REF_FRAME      = TEME
TIME_SYSTEM    = UTC
MEAN_ELEMENT_THEORY = SGP/SGP4

EPOCH          = 2025-11-26T02:39:18.069984
MEAN_MOTION    = 15.74244379
ECCENTRICITY   = .0001239
INCLINATION    = 53.1581
RA_OF_ASC_NODE = 357.4107
ARG_OF_PERICENTER = 105.6176
MEAN_ANOMALY   = 254.4981

EPHEMERIS_TYPE = 0
CLASSIFICATION_TYPE = U
NORAD_CAT_ID   = 66370
ELEMENT_SET_NO = 999
REV_AT_EPOCH   = 306
BSTAR          = .99828E-3
MEAN_MOTION_DOT = .148532E-2
MEAN_MOTION_DDOT = 0

