STARLINK-35805          
1 66359U 25254M   25330.11434662  .00185046  00000+0  12366-2 0  9990
2 66359  53.1584 357.4370 0001343  62.9877 297.1280 15.74257510  4208
STARLINK-35823          
1 66360U 25254N   25330.11366961  .00166299  00000+0  11145-2 0  9991
2 66360  53.1583 357.4320 0001362  56.3241 303.7908 15.74250423  3067
STARLINK-35813          
1 66361U 25254P   25330.11400727  .00130692  00000+0  88114-3 0  9990
2 66361  53.1584 357.4347 0001260 121.6655 238.4488 15.74234515  3061
STARLINK-35822          
1 66362U 25254Q   25330.17648051  .00146390  00000+0  98454-3 0  9991
2 66362  53.1583 357.1131 0001378 130.8159 229.2980 15.74236398  3077
STARLINK-35806          
1 66363U 25254R   25330.11333139  .00126761  00000+0  85546-3 0  9992
2 66363  53.1584 357.4298 0000962  77.6714 282.4414 15.74226435  3062
STARLINK-35797          
1 66364U 25254S   25330.17614399  .00143542  00000+0  96606-3 0  9994
2 66364  53.1582 357.1103 0001220 121.8014 238.3125 15.74230299  3079
STARLINK-35827          
1 66365U 25254T   25330.11198024  .00153979  00000+0  10343-2 0  9999
2 66365  53.1582 357.4210 0001356  93.7797 266.3378 15.74238832  3068
STARLINK-35845          
1 66366U 25254U   25330.11231690  .00157871  00000+0  10593-2 0  9999
2 66366  53.1582 357.4226 0001470  69.5785 290.5393 15.74250326  3069
STARLINK-35846          
1 66367U 25254V   25330.11164248  .00148774  00000+0  10003-2 0  9992
2 66367  53.1582 357.4180 0001238 105.8692 254.2464 15.74235236  3061
STARLINK-34861          
1 66368U 25254W   25330.17445185  .00225967  00000+0  15011-2 0  9995
2 66368  53.1580 357.0976 0001102 129.8389 230.2728 15.74267632  3071
STARLINK-35795          
1 66369U 25254X   25330.11130362  .00169643  00000+0  11364-2 0  9993
2 66369  53.1579 357.4147 0001345  90.3895 269.7279 15.74251246  3068
STARLINK-35824          
1 66370U 25254Y   25330.11062581  .00148532  00000+0  99828-3 0  9998
2 66370  53.1581 357.4107 0001239 105.6176 254.4981 15.74244379  3063
